[{"OBJECT_NAME":"JILIN-1 GAOFEN 2B","OBJECT_ID":"2019-086A","EPOCH":"2026-04-05T06:50:50.127360","MEAN_MOTION":15.19871659,"ECCENTRICITY":0.00137938,"INCLINATION":97.4918,"RA_OF_ASC_NODE":167.767,"ARG_OF_PERICENTER":208.5444,"MEAN_ANOMALY":151.5037,"EPHEMERIS_TYPE":0,"CLASSIFICATION_TYPE":"U","NORAD_CAT_ID":44836,"ELEMENT_SET_NO":999,"REV_AT_EPOCH":34941,"BSTAR":0.00045725921,"MEAN_MOTION_DOT":9.772e-5,"MEAN_MOTION_DDOT":0},{"OBJECT_NAME":"ANGELS","OBJECT_ID":"2019-092D","EPOCH":"2026-04-05T02:43:31.961568","MEAN_MOTION":15.93979352,"ECCENTRICITY":0.00023496,"INCLINATION":97.4101,"RA_OF_ASC_NODE":312.3678,"ARG_OF_PERICENTER":140.4355,"MEAN_ANOMALY":219.7091,"EPHEMERIS_TYPE":0,"CLASSIFICATION_TYPE":"U","NORAD_CAT_ID":44876,"ELEMENT_SET_NO":999,"REV_AT_EPOCH":35081,"BSTAR":0.00096349213,"MEAN_MOTION_DOT":0.00350822,"MEAN_MOTION_DDOT":4.9898917e-5},{"OBJECT_NAME":"TIANQIN 1 (CAS-6)","OBJECT_ID":"2019-093A","EPOCH":"2026-04-05T06:43:54.264288","MEAN_MOTION":14.95080388,"ECCENTRICITY":0.00101214,"INCLINATION":97.7805,"RA_OF_ASC_NODE":179.67,"ARG_OF_PERICENTER":299.72,"MEAN_ANOMALY":60.3013,"EPHEMERIS_TYPE":0,"CLASSIFICATION_TYPE":"U","NORAD_CAT_ID":44879,"ELEMENT_SET_NO":999,"REV_AT_EPOCH":34115,"BSTAR":0.00020123887,"MEAN_MOTION_DOT":2.148e-5,"MEAN_MOTION_DDOT":0},{"OBJECT_NAME":"ETRSS-1","OBJECT_ID":"2019-093B","EPOCH":"2026-04-05T05:45:39.280608","MEAN_MOTION":14.95458618,"ECCENTRICITY":0.00099544,"INCLINATION":97.7816,"RA_OF_ASC_NODE":180.0275,"ARG_OF_PERICENTER":299.494,"MEAN_ANOMALY":60.5287,"EPHEMERIS_TYPE":0,"CLASSIFICATION_TYPE":"U","NORAD_CAT_ID":44880,"ELEMENT_SET_NO":999,"REV_AT_EPOCH":34115,"BSTAR":0.00041098429,"MEAN_MOTION_DOT":4.493e-5,"MEAN_MOTION_DDOT":0},{"OBJECT_NAME":"TIANYAN 01","OBJECT_ID":"2019-093C","EPOCH":"2026-04-05T06:38:34.434816","MEAN_MOTION":14.8640302,"ECCENTRICITY":0.00128597,"INCLINATION":97.7568,"RA_OF_ASC_NODE":169.2798,"ARG_OF_PERICENTER":332.5768,"MEAN_ANOMALY":27.4767,"EPHEMERIS_TYPE":0,"CLASSIFICATION_TYPE":"U","NORAD_CAT_ID":44881,"ELEMENT_SET_NO":999,"REV_AT_EPOCH":34058,"BSTAR":0.00018754244,"MEAN_MOTION_DOT":1.604e-5,"MEAN_MOTION_DDOT":0},{"OBJECT_NAME":"TIANYAN 02","OBJECT_ID":"2019-093D","EPOCH":"2026-04-05T05:42:59.385312","MEAN_MOTION":15.04322525,"ECCENTRICITY":0.00123908,"INCLINATION":97.7902,"RA_OF_ASC_NODE":189.3986,"ARG_OF_PERICENTER":268.5912,"MEAN_ANOMALY":91.3894,"EPHEMERIS_TYPE":0,"CLASSIFICATION_TYPE":"U","NORAD_CAT_ID":44882,"ELEMENT_SET_NO":999,"REV_AT_EPOCH":34164,"BSTAR":0.00067835937,"MEAN_MOTION_DOT":9.412e-5,"MEAN_MOTION_DDOT":0},{"OBJECT_NAME":"CBERS 4A","OBJECT_ID":"2019-093E","EPOCH":"2026-04-05T06:53:27.081600","MEAN_MOTION":14.81651717,"ECCENTRICITY":0.00031569,"INCLINATION":97.7544,"RA_OF_ASC_NODE":164.8546,"ARG_OF_PERICENTER":76.5434,"MEAN_ANOMALY":283.6131,"EPHEMERIS_TYPE":0,"CLASSIFICATION_TYPE":"U","NORAD_CAT_ID":44883,"ELEMENT_SET_NO":999,"REV_AT_EPOCH":34028,"BSTAR":0.00040667657,"MEAN_MOTION_DOT":3.15e-5,"MEAN_MOTION_DDOT":0},{"OBJECT_NAME":"WEILAI 1R","OBJECT_ID":"2019-093F","EPOCH":"2026-04-05T05:23:56.060160","MEAN_MOTION":15.00050434,"ECCENTRICITY":0.00114315,"INCLINATION":97.7873,"RA_OF_ASC_NODE":185.0506,"ARG_OF_PERICENTER":280.657,"MEAN_ANOMALY":79.3365,"EPHEMERIS_TYPE":0,"CLASSIFICATION_TYPE":"U","NORAD_CAT_ID":44884,"ELEMENT_SET_NO":999,"REV_AT_EPOCH":34148,"BSTAR":0.00061938621,"MEAN_MOTION_DOT":7.666e-5,"MEAN_MOTION_DDOT":0},{"OBJECT_NAME":"FLORIPASAT-1","OBJECT_ID":"2019-093G","EPOCH":"2026-04-05T06:46:25.128192","MEAN_MOTION":15.03103608,"ECCENTRICITY":0.00113131,"INCLINATION":97.7867,"RA_OF_ASC_NODE":189.0376,"ARG_OF_PERICENTER":317.9558,"MEAN_ANOMALY":42.0798,"EPHEMERIS_TYPE":0,"CLASSIFICATION_TYPE":"U","NORAD_CAT_ID":44885,"ELEMENT_SET_NO":999,"REV_AT_EPOCH":34169,"BSTAR":0.00077530722,"MEAN_MOTION_DOT":0.00010421,"MEAN_MOTION_DDOT":0},{"OBJECT_NAME":"SHUNTIAN","OBJECT_ID":"2019-093H","EPOCH":"2026-04-05T06:02:38.021280","MEAN_MOTION":14.94799831,"ECCENTRICITY":0.00104835,"INCLINATION":97.799,"RA_OF_ASC_NODE":183.8115,"ARG_OF_PERICENTER":311.9628,"MEAN_ANOMALY":48.0698,"EPHEMERIS_TYPE":0,"CLASSIFICATION_TYPE":"U","NORAD_CAT_ID":44886,"ELEMENT_SET_NO":999,"REV_AT_EPOCH":34128,"BSTAR":0.00037940888,"MEAN_MOTION_DOT":4.074e-5,"MEAN_MOTION_DDOT":0},{"OBJECT_NAME":"2019-093L","OBJECT_ID":"2019-093L","EPOCH":"2026-04-05T06:24:01.583136","MEAN_MOTION":14.9414972,"ECCENTRICITY":0.00106944,"INCLINATION":97.7569,"RA_OF_ASC_NODE":174.4062,"ARG_OF_PERICENTER":296.3548,"MEAN_ANOMALY":63.6573,"EPHEMERIS_TYPE":0,"CLASSIFICATION_TYPE":"U","NORAD_CAT_ID":44889,"ELEMENT_SET_NO":999,"REV_AT_EPOCH":34091,"BSTAR":0.00048173258,"MEAN_MOTION_DOT":5.104e-5,"MEAN_MOTION_DDOT":0},{"OBJECT_NAME":"ELEKTRO-L 3","OBJECT_ID":"2019-095A","EPOCH":"2026-04-04T23:24:55.714176","MEAN_MOTION":1.00272372,"ECCENTRICITY":0.0001391,"INCLINATION":0.0753,"RA_OF_ASC_NODE":61.4371,"ARG_OF_PERICENTER":306.4789,"MEAN_ANOMALY":252.5355,"EPHEMERIS_TYPE":0,"CLASSIFICATION_TYPE":"U","NORAD_CAT_ID":44903,"ELEMENT_SET_NO":999,"REV_AT_EPOCH":2297,"BSTAR":0,"MEAN_MOTION_DOT":-9.5e-7,"MEAN_MOTION_DDOT":0},{"OBJECT_NAME":"GONETS-M 14","OBJECT_ID":"2019-096A","EPOCH":"2026-04-05T06:39:55.577376","MEAN_MOTION":12.42868384,"ECCENTRICITY":0.00123238,"INCLINATION":82.5204,"RA_OF_ASC_NODE":129.8479,"ARG_OF_PERICENTER":316.6267,"MEAN_ANOMALY":43.3842,"EPHEMERIS_TYPE":0,"CLASSIFICATION_TYPE":"U","NORAD_CAT_ID":44905,"ELEMENT_SET_NO":999,"REV_AT_EPOCH":28462,"BSTAR":-0.00018671582,"MEAN_MOTION_DOT":-1.6e-7,"MEAN_MOTION_DDOT":0},{"OBJECT_NAME":"GONETS-M 15","OBJECT_ID":"2019-096B","EPOCH":"2026-04-05T07:22:23.161728","MEAN_MOTION":12.42868888,"ECCENTRICITY":0.0014642,"INCLINATION":82.5224,"RA_OF_ASC_NODE":130.2794,"ARG_OF_PERICENTER":340.0232,"MEAN_ANOMALY":20.0273,"EPHEMERIS_TYPE":0,"CLASSIFICATION_TYPE":"U","NORAD_CAT_ID":44906,"ELEMENT_SET_NO":999,"REV_AT_EPOCH":28459,"BSTAR":-0.00017340309,"MEAN_MOTION_DOT":-1.4e-7,"MEAN_MOTION_DDOT":0},{"OBJECT_NAME":"GONETS-M 16","OBJECT_ID":"2019-096C","EPOCH":"2026-04-05T06:06:01.492416","MEAN_MOTION":12.4288934,"ECCENTRICITY":0.00113507,"INCLINATION":82.5169,"RA_OF_ASC_NODE":129.2992,"ARG_OF_PERICENTER":24.3234,"MEAN_ANOMALY":335.8379,"EPHEMERIS_TYPE":0,"CLASSIFICATION_TYPE":"U","NORAD_CAT_ID":44907,"ELEMENT_SET_NO":999,"REV_AT_EPOCH":28457,"BSTAR":-0.00013309675,"MEAN_MOTION_DOT":-9.0e-8,"MEAN_MOTION_DDOT":0},{"OBJECT_NAME":"RS-44 & BREEZE-KM R/B","OBJECT_ID":"2019-096E","EPOCH":"2026-04-05T05:15:10.354176","MEAN_MOTION":12.79747781,"ECCENTRICITY":0.02167683,"INCLINATION":82.5256,"RA_OF_ASC_NODE":28.1874,"ARG_OF_PERICENTER":315.2466,"MEAN_ANOMALY":43.1321,"EPHEMERIS_TYPE":0,"CLASSIFICATION_TYPE":"U","NORAD_CAT_ID":44909,"ELEMENT_SET_NO":999,"REV_AT_EPOCH":29301,"BSTAR":2.3820524e-5,"MEAN_MOTION_DOT":1.5e-7,"MEAN_MOTION_DDOT":0}]
