JILIN-1 GAOFEN 2B       
1 44836U 19086A   26095.28530240  .00009772  00000+0  45726-3 0  9996
2 44836  97.4918 167.7670 0013793 208.5444 151.5037 15.19871659349414
ANGELS                  
1 44876U 19092D   26095.11356437  .00350822  49899-4  96349-3 0  9999
2 44876  97.4101 312.3678 0002349 140.4355 219.7091 15.93979352350812
TIANQIN 1 (CAS-6)       
1 44879U 19093A   26095.28048917  .00002148  00000+0  20124-3 0  9991
2 44879  97.7805 179.6700 0010121 299.7200  60.3013 14.95080388341157
ETRSS-1                 
1 44880U 19093B   26095.24003797  .00004493  00000+0  41098-3 0  9994
2 44880  97.7816 180.0275 0009954 299.4940  60.5287 14.95458618341154
TIANYAN 01              
1 44881U 19093C   26095.27678744  .00001604  00000+0  18754-3 0  9992
2 44881  97.7568 169.2798 0012859 332.5768  27.4767 14.86403020340581
TIANYAN 02              
1 44882U 19093D   26095.23818733  .00009412  00000+0  67836-3 0  9993
2 44882  97.7902 189.3986 0012390 268.5912  91.3894 15.04322525341645
CBERS 4A                
1 44883U 19093E   26095.28711900  .00003150  00000+0  40668-3 0  9994
2 44883  97.7544 164.8546 0003156  76.5434 283.6131 14.81651717340285
WEILAI 1R               
1 44884U 19093F   26095.22495440  .00007666  00000+0  61939-3 0  9997
2 44884  97.7873 185.0506 0011431 280.6570  79.3365 15.00050434341489
FLORIPASAT-1            
1 44885U 19093G   26095.28223528  .00010421  00000+0  77531-3 0  9998
2 44885  97.7867 189.0376 0011313 317.9558  42.0798 15.03103608341696
SHUNTIAN                
1 44886U 19093H   26095.25182895  .00004074  00000+0  37941-3 0  9995
2 44886  97.7990 183.8115 0010483 311.9628  48.0698 14.94799831341284
2019-093L               
1 44889U 19093L   26095.26668499  .00005104  00000+0  48173-3 0  9992
2 44889  97.7569 174.4062 0010694 296.3548  63.6573 14.94149720340917
ELEKTRO-L 3             
1 44903U 19095A   26094.97564484 -.00000095  00000+0  00000+0 0  9995
2 44903   0.0753  61.4371 0001391 306.4789 252.5355  1.00272372 22971
GONETS-M 14             
1 44905U 19096A   26095.27772659 -.00000016  00000+0 -18672-3 0  9999
2 44905  82.5204 129.8479 0012323 316.6267  43.3842 12.42868384284629
GONETS-M 15             
1 44906U 19096B   26095.30721252 -.00000014  00000+0 -17340-3 0  9996
2 44906  82.5224 130.2794 0014642 340.0232  20.0273 12.42868888284592
GONETS-M 16             
1 44907U 19096C   26095.25418394 -.00000009  00000+0 -13310-3 0  9998
2 44907  82.5169 129.2992 0011350  24.3234 335.8379 12.42889340284574
RS-44 & BREEZE-KM R/B   
1 44909U 19096E   26095.21886984  .00000015  00000+0  23821-4 0  9994
2 44909  82.5256  28.1874 0216768 315.2466  43.1321 12.79747781293015
